OBJECT_NAME,OBJECT_ID,EPOCH,MEAN_MOTION,ECCENTRICITY,INCLINATION,RA_OF_ASC_NODE,ARG_OF_PERICENTER,MEAN_ANOMALY,EPHEMERIS_TYPE,CLASSIFICATION_TYPE,NORAD_CAT_ID,ELEMENT_SET_NO,REV_AT_EPOCH,BSTAR,MEAN_MOTION_DOT,MEAN_MOTION_DDOT
TRITON-1,2013-066M,2026-07-17T05:04:05.721312,14.81800261,.00907014,97.8226,107.3325,135.5895,225.2638,0,U,39427,999,67853,.12548217E-3,.1007E-4,0
GOMX-1,2013-066Q,2026-07-17T06:46:02.259840,14.69545481,.01280422,97.6462,36.8453,341.4939,18.1632,0,U,39430,999,67433,.10384782E-3,.646E-5,0
CUBEBUG-2 (LO-74),2013-066AA,2026-07-17T06:30:55.280160,14.93975515,.00556156,97.8919,147.3840,288.3376,71.1800,0,U,39440,999,68148,.18925927E-3,.2015E-4,0
NEE-02 KRYSAOR,2013-066AB,2026-07-17T07:03:47.948544,14.86744048,.00652264,97.8897,137.2978,332.3487,27.4265,0,U,39441,999,68067,.12208443E-3,.1069E-4,0
FUNCUBE-1 (AO-73),2013-066AE,2026-07-16T21:11:52.011168,15.09830753,.00379408,97.8292,169.9592,102.2043,258.3439,0,U,39444,999,68414,.25213319E-3,.4077E-4,0
UWE-3,2013-066AG,2026-07-16T19:46:31.675008,14.97205791,.00475708,97.8716,154.1042,218.9248,140.8545,0,U,39446,999,68201,.17839666E-3,.2047E-4,0
SMDC ONE 2.4,2013-072H,2026-07-17T05:24:50.552640,15.18851137,.01481662,120.4891,108.1141,50.6248,310.7847,0,U,39469,999,12239,.3485666E-3,.9384E-4,0
COSMOS 2488 (RODNIK-S 7),2013-076A,2026-07-17T07:18:05.239584,12.42906003,.00205223,82.4860,149.9333,33.1821,327.0542,0,U,39483,999,56963,-.31228576E-3,-.33E-6,0
COSMOS 2489 (RODNIK-S 8),2013-076B,2026-07-17T06:43:17.389632,12.42880212,.00223389,82.4896,151.3370,32.9289,327.3177,0,U,39484,999,56968,.36967685E-3,.61E-6,0
COSMOS 2490 (RODNIK-S 9),2013-076C,2026-07-17T07:58:47.047008,12.42878766,.00227483,82.4843,149.3587,47.7475,312.5529,0,U,39485,999,56962,-.44365049E-3,-.51E-6,0
KAZEOSAT 1,2014-024A,2026-07-17T08:14:07.758240,14.42037534,.00012127,98.3198,270.0381,83.0705,277.0623,0,U,39731,999,64290,.1375654E-4,.2E-7,0
COSMOS 2496 (RODNIK-S 10),2014-028A,2026-07-17T06:57:33.094368,12.42879586,.00207658,82.4451,89.8777,16.5206,343.6546,0,U,39761,999,55125,.42894215E-3,.69E-6,0
COSMOS 2497 (RODNIK-S 11),2014-028B,2026-07-17T06:21:24.240096,12.42895252,.00212333,82.4501,91.5949,11.6162,348.5403,0,U,39762,999,55125,.21722733E-3,.4E-6,0
COSMOS 2498 (RODNIK-S 12),2014-028C,2026-07-17T07:42:03.884256,12.42980832,.00219412,82.4460,90.0337,11.0233,349.1323,0,U,39763,999,55129,-.15620396E-3,-.12E-6,0
HODOYOSHI-4,2014-033B,2026-07-17T06:59:43.231776,14.88191668,.00227697,97.5456,21.6624,202.3534,157.6693,0,U,40011,999,65328,.30809622E-4,.233E-5,0
UNISAT-6,2014-033C,2026-07-17T06:04:05.500416,14.88371050,.00440226,97.7911,350.4435,330.8621,29.0140,0,U,40012,999,65063,.11749899E-3,.105E-4,0
DEIMOS-2,2014-033D,2026-07-17T06:14:33.885888,14.93798090,.00011491,97.5782,71.6871,109.5249,250.6096,0,U,40013,999,64221,.90194897E-4,.902E-5,0
BUGSAT-1 (TITA),2014-033E,2026-07-17T06:30:38.332800,15.15894800,.00288991,98.0433,292.5860,79.0153,281.4326,0,U,40014,999,66039,.19631352E-3,.3721E-4,0
SAUDISAT 4,2014-033G,2026-07-16T22:38:00.349440,14.79576559,.00441019,97.7620,343.0551,338.3305,21.6040,0,U,40016,999,65047,.36008424E-4,.221E-5,0
APRIZESAT 9,2014-033J,2026-07-16T22:27:59.678496,14.74253859,.0067483,97.9097,330.4134,104.4598,256.4112,0,U,40018,999,64794,.51058417E-4,.298E-5,0
BRITE-CA1 (TORONTO),2014-033L,2026-07-16T22:23:37.948704,14.72724463,.00785752,97.9774,326.3188,180.6925,179.4187,0,U,40020,999,64659,.83590365E-4,.506E-5,0
