TRITON-1                
1 39427U 13066M   26198.21117733  .00001007  00000+0  12548-3 0  9992
2 39427  97.8226 107.3325 0090701 135.5895 225.2638 14.81800261678533
GOMX-1                  
1 39430U 13066Q   26198.28197060  .00000646  00000+0  10385-3 0  9999
2 39430  97.6462  36.8453 0128042 341.4939  18.1632 14.69545481674335
CUBEBUG-2 (LO-74)       
1 39440U 13066AA  26198.27147315  .00002015  00000+0  18926-3 0  9998
2 39440  97.8919 147.3840 0055615 288.3376  71.1800 14.93975515681484
NEE-02 KRYSAOR          
1 39441U 13066AB  26198.29430496  .00001069  00000+0  12208-3 0  9991
2 39441  97.8897 137.2978 0065226 332.3487  27.4265 14.86744048680678
FUNCUBE-1 (AO-73)       
1 39444U 13066AE  26197.88324087  .00004077  00000+0  25213-3 0  9998
2 39444  97.8292 169.9592 0037940 102.2043 258.3439 15.09830753684147
UWE-3                   
1 39446U 13066AG  26197.82397772  .00002047  00000+0  17840-3 0  9997
2 39446  97.8716 154.1042 0047570 218.9248 140.8545 14.97205791682019
SMDC ONE 2.4            
1 39469U 13072H   26198.22558510  .00009384  00000+0  34857-3 0  9991
2 39469 120.4891 108.1141 0148166  50.6248 310.7847 15.18851137122392
COSMOS 2488 (RODNIK-S 7)
1 39483U 13076A   26198.30422731 -.00000033  00000+0 -31229-3 0  9999
2 39483  82.4860 149.9333 0020522  33.1821 327.0542 12.42906003569637
COSMOS 2489 (RODNIK-S 8)
1 39484U 13076B   26198.28006238  .00000061  00000+0  36968-3 0  9991
2 39484  82.4896 151.3370 0022338  32.9289 327.3177 12.42880212569682
COSMOS 2490 (RODNIK-S 9)
1 39485U 13076C   26198.33248897 -.00000051  00000+0 -44365-3 0  9998
2 39485  82.4843 149.3587 0022748  47.7475 312.5529 12.42878766569620
KAZEOSAT 1              
1 39731U 14024A   26198.34314535  .00000002  00000+0  13757-4 0  9996
2 39731  98.3198 270.0381 0001212  83.0705 277.0623 14.42037534642904
COSMOS 2496 (RODNIK-S *)
1 39761U 14028A   26198.28996637  .00000069  00000+0  42894-3 0  9991
2 39761  82.4451  89.8777 0020765  16.5206 343.6546 12.42879586551259
COSMOS 2497 (RODNIK-S *)
1 39762U 14028B   26198.26486389  .00000040  00000+0  21723-3 0  9995
2 39762  82.4501  91.5949 0021233  11.6162 348.5403 12.42895252551259
COSMOS 2498 (RODNIK-S *)
1 39763U 14028C   26198.32087829 -.00000012  00000+0 -15620-3 0  9999
2 39763  82.4460  90.0337 0021941  11.0233 349.1323 12.42980832551299
HODOYOSHI-4             
1 40011U 14033B   26198.29147259  .00000233  00000+0  30810-4 0  9995
2 40011  97.5456  21.6624 0022769 202.3534 157.6693 14.88191668653283
UNISAT-6                
1 40012U 14033C   26198.25284144  .00001050  00000+0  11750-3 0  9996
2 40012  97.7911 350.4435 0044022 330.8621  29.0140 14.88371050650635
DEIMOS-2                
1 40013U 14033D   26198.26011442  .00000902  00000+0  90195-4 0  9993
2 40013  97.5782  71.6871 0001149 109.5249 250.6096 14.93798090642216
BUGSAT-1 (TITA)         
1 40014U 14033E   26198.27127700  .00003721  00000+0  19631-3 0  9997
2 40014  98.0433 292.5860 0028899  79.0153 281.4326 15.15894800660392
SAUDISAT 4              
1 40016U 14033G   26197.94305960  .00000221  00000+0  36008-4 0  9998
2 40016  97.7620 343.0551 0044101 338.3305  21.6040 14.79576559650473
APRIZESAT 9             
1 40018U 14033J   26197.93610739  .00000298  00000+0  51058-4 0  9998
2 40018  97.9097 330.4134 0067483 104.4598 256.4112 14.74253859647942
BRITE-CA1 (TORONTO)     
1 40020U 14033L   26197.93307811  .00000506  00000+0  83590-4 0  9993
2 40020  97.9774 326.3188 0078575 180.6925 179.4187 14.72724463646592
